O3B MPOWER F1           
1 54755U 22174A   23247.05312887 -.00000025  00000+0  00000+0 0  9990
2 54755   0.0443  15.5103 0004669 161.5309  99.0450  5.00118465 14455
